{
  "type": "FeatureCollection",
  "features": [
    {
      "type": "Feature",
      "properties": {
        "norad_id": 35243,
        "name": "FENGYUN 1C DEB",
        "group": "fengyun-1c-debris",
        "lat": 58.99653125921954,
        "lon": 58.033883750092386,
        "alt_km": 646.6752827817027,
        "timestamp": "2025-12-19T10:50:01.488660+00:00",
        "meta_object_name": "FENGYUN 1C DEB",
        "meta_object_id": "1999-025DRB",
        "meta_epoch": "2025-12-18T11:57:16.599456",
        "meta_mean_motion": 14.8717719,
        "meta_eccentricity": 0.00657221,
        "meta_inclination": 98.8806,
        "meta_ra_of_asc_node": 72.0495,
        "meta_arg_of_pericenter": 238.5919,
        "meta_mean_anomaly": 120.8856,
        "meta_ephemeris_type": 0,
        "meta_classification_type": "U",
        "meta_norad_cat_id": 35243,
        "meta_element_set_no": 999,
        "meta_rev_at_epoch": 91086,
        "meta_bstar": 0.0018937389,
        "meta_mean_motion_dot": 0.00017688,
        "meta_mean_motion_ddot": 0,
        "tle_line1": "1 35243U 99025DRB 25352.49810879  .00017688  00000+0  18937-2 0  9994",
        "tle_line2": "2 35243  98.8806  72.0495 0065722 238.5919 120.8856 14.87177190910863"
      },
      "geometry": {
        "type": "Point",
        "coordinates": [
          58.033883750092386,
          58.99653125921954
        ]
      }
    },
    {
      "type": "Feature",
      "properties": {
        "norad_id": 35244,
        "name": "FENGYUN 1C DEB",
        "group": "fengyun-1c-debris",
        "lat": -78.52467809778202,
        "lon": 163.46033037253383,
        "alt_km": 907.0411474836174,
        "timestamp": "2025-12-19T10:50:01.488670+00:00",
        "meta_object_name": "FENGYUN 1C DEB",
        "meta_object_id": "1999-025DRC",
        "meta_epoch": "2025-12-17T20:02:14.462304",
        "meta_mean_motion": 14.0663789,
        "meta_eccentricity": 0.0072046,
        "meta_inclination": 98.841,
        "meta_ra_of_asc_node": 31.9375,
        "meta_arg_of_pericenter": 143.3258,
        "meta_mean_anomaly": 217.2873,
        "meta_ephemeris_type": 0,
        "meta_classification_type": "U",
        "meta_norad_cat_id": 35244,
        "meta_element_set_no": 999,
        "meta_rev_at_epoch": 65893,
        "meta_bstar": 0.00060777976,
        "meta_mean_motion_dot": 9.89e-06,
        "meta_mean_motion_ddot": 0,
        "tle_line1": "1 35244U 99025DRC 25351.83488961  .00000989  00000+0  60778-3 0  9992",
        "tle_line2": "2 35244  98.8410  31.9375 0072046 143.3258 217.2873 14.06637890658938"
      },
      "geometry": {
        "type": "Point",
        "coordinates": [
          163.46033037253383,
          -78.52467809778202
        ]
      }
    },
    {
      "type": "Feature",
      "properties": {
        "norad_id": 35245,
        "name": "FENGYUN 1C DEB",
        "group": "fengyun-1c-debris",
        "lat": -44.001256022815454,
        "lon": 87.95804010856688,
        "alt_km": 836.0355760204966,
        "timestamp": "2025-12-19T10:50:01.488680+00:00",
        "meta_object_name": "FENGYUN 1C DEB",
        "meta_object_id": "1999-025DRD",
        "meta_epoch": "2025-12-17T17:17:18.918240",
        "meta_mean_motion": 14.13119254,
        "meta_eccentricity": 0.00595879,
        "meta_inclination": 99.0851,
        "meta_ra_of_asc_node": 77.3124,
        "meta_arg_of_pericenter": 256.5314,
        "meta_mean_anomaly": 256.8442,
        "meta_ephemeris_type": 0,
        "meta_classification_type": "U",
        "meta_norad_cat_id": 35245,
        "meta_element_set_no": 999,
        "meta_rev_at_epoch": 87847,
        "meta_bstar": 0.0013969005,
        "meta_mean_motion_dot": 2.609e-05,
        "meta_mean_motion_ddot": 0,
        "tle_line1": "1 35245U 99025DRD 25351.72035785  .00002609  00000+0  13969-2 0  9993",
        "tle_line2": "2 35245  99.0851  77.3124 0059587 256.5314 256.8442 14.13119254878473"
      },
      "geometry": {
        "type": "Point",
        "coordinates": [
          87.95804010856688,
          -44.001256022815454
        ]
      }
    },
    {
      "type": "Feature",
      "properties": {
        "norad_id": 36147,
        "name": "FENGYUN 1C DEB",
        "group": "fengyun-1c-debris",
        "lat": -1.481156485621934,
        "lon": -119.50464901762756,
        "alt_km": 933.3348943742558,
        "timestamp": "2025-12-19T10:50:01.488690+00:00",
        "meta_object_name": "FENGYUN 1C DEB",
        "meta_object_id": "1999-025DRU",
        "meta_epoch": "2025-12-17T11:31:27.409440",
        "meta_mean_motion": 13.46541919,
        "meta_eccentricity": 0.04416815,
        "meta_inclination": 98.5253,
        "meta_ra_of_asc_node": 59.0332,
        "meta_arg_of_pericenter": 250.7221,
        "meta_mean_anomaly": 104.5651,
        "meta_ephemeris_type": 0,
        "meta_classification_type": "U",
        "meta_norad_cat_id": 36147,
        "meta_element_set_no": 999,
        "meta_rev_at_epoch": 60061,
        "meta_bstar": 0.0016131915,
        "meta_mean_motion_dot": 1.724e-05,
        "meta_mean_motion_ddot": 0,
        "tle_line1": "1 36147U 99025DRU 25351.48017835  .00001724  00000+0  16132-2 0  9996",
        "tle_line2": "2 36147  98.5253  59.0332 0441681 250.7221 104.5651 13.46541919600618"
      },
      "geometry": {
        "type": "Point",
        "coordinates": [
          -119.50464901762756,
          -1.481156485621934
        ]
      }
    },
    {
      "type": "Feature",
      "properties": {
        "norad_id": 36148,
        "name": "FENGYUN 1C DEB",
        "group": "fengyun-1c-debris",
        "lat": -13.850270057809622,
        "lon": -154.32354344066093,
        "alt_km": 747.6046530040358,
        "timestamp": "2025-12-19T10:50:01.488700+00:00",
        "meta_object_name": "FENGYUN 1C DEB",
        "meta_object_id": "1999-025DRV",
        "meta_epoch": "2025-12-18T07:09:26.948448",
        "meta_mean_motion": 13.84991939,
        "meta_eccentricity": 0.0285932,
        "meta_inclination": 98.4229,
        "meta_ra_of_asc_node": 202.5456,
        "meta_arg_of_pericenter": 334.7156,
        "meta_mean_anomaly": 24.0233,
        "meta_ephemeris_type": 0,
        "meta_classification_type": "U",
        "meta_norad_cat_id": 36148,
        "meta_element_set_no": 999,
        "meta_rev_at_epoch": 90321,
        "meta_bstar": 0.0029354958,
        "meta_mean_motion_dot": 4.526e-05,
        "meta_mean_motion_ddot": 0,
        "tle_line1": "1 36148U 99025DRV 25352.29822857  .00004526  00000+0  29355-2 0  9999",
        "tle_line2": "2 36148  98.4229 202.5456 0285932 334.7156  24.0233 13.84991939903215"
      },
      "geometry": {
        "type": "Point",
        "coordinates": [
          -154.32354344066093,
          -13.850270057809622
        ]
      }
    },
    {
      "type": "Feature",
      "properties": {
        "norad_id": 36152,
        "name": "FENGYUN 1C DEB",
        "group": "fengyun-1c-debris",
        "lat": -35.36440711216936,
        "lon": -153.12892533458785,
        "alt_km": 803.6384376887072,
        "timestamp": "2025-12-19T10:50:01.488711+00:00",
        "meta_object_name": "FENGYUN 1C DEB",
        "meta_object_id": "1999-025DRZ",
        "meta_epoch": "2025-12-18T08:24:14.818464",
        "meta_mean_motion": 14.17273973,
        "meta_eccentricity": 0.00557903,
        "meta_inclination": 98.7554,
        "meta_ra_of_asc_node": 32.0659,
        "meta_arg_of_pericenter": 196.1632,
        "meta_mean_anomaly": 163.7765,
        "meta_ephemeris_type": 0,
        "meta_classification_type": "U",
        "meta_norad_cat_id": 36152,
        "meta_element_set_no": 999,
        "meta_rev_at_epoch": 64236,
        "meta_bstar": 0.00095568478,
        "meta_mean_motion_dot": 1.917e-05,
        "meta_mean_motion_ddot": 0,
        "tle_line1": "1 36152U 99025DRZ 25352.35017151  .00001917  00000+0  95568-3 0  9995",
        "tle_line2": "2 36152  98.7554  32.0659 0055790 196.1632 163.7765 14.17273973642366"
      },
      "geometry": {
        "type": "Point",
        "coordinates": [
          -153.12892533458785,
          -35.36440711216936
        ]
      }
    },
    {
      "type": "Feature",
      "properties": {
        "norad_id": 36160,
        "name": "FENGYUN 1C DEB",
        "group": "fengyun-1c-debris",
        "lat": -57.855108879990475,
        "lon": -152.36166197785337,
        "alt_km": 950.9479295504398,
        "timestamp": "2025-12-19T10:50:01.488721+00:00",
        "meta_object_name": "FENGYUN 1C DEB",
        "meta_object_id": "1999-025DSH",
        "meta_epoch": "2025-12-12T19:23:25.399104",
        "meta_mean_motion": 14.13217835,
        "meta_eccentricity": 0.0135077,
        "meta_inclination": 98.1387,
        "meta_ra_of_asc_node": 188.429,
        "meta_arg_of_pericenter": 152.2609,
        "meta_mean_anomaly": 208.5855,
        "meta_ephemeris_type": 0,
        "meta_classification_type": "U",
        "meta_norad_cat_id": 36160,
        "meta_element_set_no": 999,
        "meta_rev_at_epoch": 60053,
        "meta_bstar": 0.00034837814,
        "meta_mean_motion_dot": 6.74e-06,
        "meta_mean_motion_ddot": 0,
        "tle_line1": "1 36160U 99025DSH 25346.80793286  .00000674  00000+0  34838-3 0  9999",
        "tle_line2": "2 36160  98.1387 188.4290 0135077 152.2609 208.5855 14.13217835600536"
      },
      "geometry": {
        "type": "Point",
        "coordinates": [
          -152.36166197785337,
          -57.855108879990475
        ]
      }
    }
  ]
}